{{Infobox Planet  
| name=791 Ani (1914 UV)
| image=
| caption=
| discovery=yes 
| physical_characteristics=yes 
| bgcolour=#FFFFC0
| discoverer=[[格里高利·诺伊明|格里高利·诺伊明]]
| discovery_site=[[西梅斯|西梅斯]]
| discovered=1914年6月29日
| mp_name=791
| alt_names=
| mp_category=[[小行星带|主带小行星]]
| epoch=2456400.5 (2013-Apr-18.0) TDB
| semimajor= 3.120417185029302AU
| perihelion=2.505795357540775AU
| aphelion=3.735039012517829AU
| eccentricity=.1969678382869038
| period=2013.341374259207天<br>5.51年
| inclination=16.3854241984006°
| asc_node=130.0277296784134°	
| arg_peri=201.6725952279296°
| mean_anomaly=287.9984690716435°
 | dimensions=
 | mean_radius=51.76千米
 | rotation=16.72小时
 | spectral_type=C
 | abs_magnitude=9.25
 | albedo=0.0329
}}
'''小行星791'''（791 Ani (1914 UV)），是[[格里高利·诺伊明|格里高利·诺伊明]]于1914年6月29日在[[西梅斯|西梅斯]]发现的[[小行星带|主带小行星]]<ref>{{JPL Small Body|name=791}}</ref>。該小行星於1914年在位於克里米亞的[[西梅茲天文台|西梅茲天文台]]發現，以曾经的中世纪亚美尼亚王国的首都[[阿尼_(土耳其)|阿尼]]命名。

== 参考资料==
{{Reflist}}

{{Minor Planet Number|[[小行星790|小行星790]]|[[小行星792|小行星792]]}}
{{beltasteroid-stub}}

[[Category:小行星带天体|Category:小行星带天体]]
[[Category:1914年发现的小行星|Category:1914年发现的小行星]]
[[Category:以地名命名的小行星|Category:以地名命名的小行星]]